{
"type": "FeatureCollection",
"name": "review_suspected_dc_or_oddclass",
"crs": { "type": "name", "properties": { "name": "urn:ogc:def:crs:OGC:1.3:CRS84" } },
"features": [
{ "type": "Feature", "properties": { "objectid": 805997, "eier": "STATNETT SF", "eierorgnr": 962986633, "st_length(shape)": 27484.086265122198, "objekttype": "EL_Luftlinje", "nvenetbasid": null, "komponentkodesystem": null, "nvenettnivaa": "1", "sosinettnivaa": "Sentralnett", "navn": "Kristiansand - Kvarenes sk1,", "spenning_kv": 250.0, "driftsattaar": null, "nveopprettetdato": null, "nveendretdato": null, "kildeendretdato": 1724774505000, "malemetode": 99.0, "noyaktighet": null, "globalid": "{5F289247-93FE-4206-AD9E-1AD083F2CFCD}", "nve_layer": "transmisjon_luft", "voltage_kv": 250.0, "geod_km": 27.439234500788398, "osm_covered_frac": 0.19672131147540983 }, "geometry": { "type": "LineString", "coordinates": [ [ 7.90367398064076, 58.260883812240252 ], [ 7.903728525276724, 58.260875982807832 ], [ 7.905744371735012, 58.25934405610532 ], [ 7.905891856631508, 58.259231968790964 ], [ 7.906667766041815, 58.258642271910936 ], [ 7.909342617241473, 58.25719082535629 ], [ 7.912440825581434, 58.255509427125226 ], [ 7.91297253344405, 58.253519024033324 ], [ 7.913880252719715, 58.250111290643332 ], [ 7.914291367216467, 58.248498494280007 ], [ 7.914893372092036, 58.244865038050165 ], [ 7.915640145963471, 58.242886395528551 ], [ 7.917360942996632, 58.238422658828249 ], [ 7.918744754093128, 58.235854393911097 ], [ 7.919552207159486, 58.233773910967471 ], [ 7.92016657567287, 58.231848621245348 ], [ 7.927696042531981, 58.23043851386192 ], [ 7.93019486305683, 58.229970413830415 ], [ 7.935458698195511, 58.228928303557353 ], [ 7.937462174085129, 58.228531590750535 ], [ 7.938435420347217, 58.228338861403586 ], [ 7.944791369019483, 58.227367518431457 ], [ 7.948147717160973, 58.226869011623414 ], [ 7.951531537763093, 58.22630702693467 ], [ 7.95582377078903, 58.225527872380781 ], [ 7.962019649096227, 58.224434526643783 ], [ 7.965363888351474, 58.223829216349415 ], [ 7.970816662116212, 58.222656137223311 ], [ 7.97830214889526, 58.221740378815973 ], [ 7.985851018810119, 58.221042445422448 ], [ 7.990389099279813, 58.220632671990934 ], [ 7.993964315538497, 58.220285652206549 ], [ 8.002583573715928, 58.219468522046284 ], [ 8.003728394248437, 58.219361352138684 ], [ 8.00664081869737, 58.21908866190811 ], [ 8.013256662045297, 58.219444212994389 ], [ 8.019594691089278, 58.219789632779126 ], [ 8.020560193583027, 58.219842223944127 ], [ 8.025280447320046, 58.221059086703214 ], [ 8.032932088833748, 58.22301757535444 ], [ 8.034244400322041, 58.223353403315024 ], [ 8.037286008724104, 58.224139406749416 ], [ 8.04940525354151, 58.225139753539899 ], [ 8.051910290699572, 58.225368070890156 ], [ 8.054557833235668, 58.225621515521802 ], [ 8.057599862722112, 58.22591041499885 ], [ 8.062874369700145, 58.226420297072401 ], [ 8.065195722100162, 58.226648775504515 ], [ 8.072213342899646, 58.227323229008412 ], [ 8.072555280855164, 58.227356081588368 ], [ 8.072717328535065, 58.227371651048365 ], [ 8.073431911760999, 58.227440302417563 ], [ 8.082721438966132, 58.229705243267823 ], [ 8.085161746915132, 58.230306390034976 ], [ 8.088199166331982, 58.230621766217354 ], [ 8.091902134926316, 58.231015312856911 ], [ 8.096435227604164, 58.231500051135754 ], [ 8.101020131838158, 58.23200347402404 ], [ 8.105576572202365, 58.230993321438994 ], [ 8.108741173550335, 58.230122674490275 ], [ 8.112884350100032, 58.228981203238746 ], [ 8.114504554796472, 58.228530794461328 ], [ 8.114671536990253, 58.228484372679191 ], [ 8.117344782101176, 58.227741148353424 ], [ 8.117484960844793, 58.227702173067897 ], [ 8.123108371321072, 58.226273588405945 ], [ 8.124197848971036, 58.225996966006512 ], [ 8.124207750430889, 58.225994452232655 ], [ 8.127699306458913, 58.22510783718154 ], [ 8.12837316829194, 58.221761993254688 ], [ 8.128960571442924, 58.218690703360167 ], [ 8.129375603213509, 58.216459362753021 ], [ 8.131266156241425, 58.21353545235992 ], [ 8.133337591732346, 58.210861162392888 ], [ 8.135741307420901, 58.207346435529566 ], [ 8.137927769779457, 58.204026204373434 ], [ 8.139546025455955, 58.20190838747785 ], [ 8.141564238157374, 58.199290245435705 ], [ 8.144646800715847, 58.195590381479811 ], [ 8.146166021759848, 58.194129264089376 ], [ 8.149896457027523, 58.191328994400408 ], [ 8.151709713858375, 58.189977565814459 ], [ 8.154430868602557, 58.187958335763838 ], [ 8.157017972997902, 58.186034377804475 ], [ 8.157058380627637, 58.18597076834947 ], [ 8.158283622616908, 58.184041835963576 ], [ 8.159593996480297, 58.181996189917967 ], [ 8.160618593938784, 58.180407119831287 ], [ 8.161977733477249, 58.178285783027377 ], [ 8.160764720718083, 58.175667457406568 ], [ 8.158659140721619, 58.171160743976294 ], [ 8.157872209735116, 58.168926825413834 ], [ 8.15732239870789, 58.167320381693543 ], [ 8.157220758142827, 58.167023390157389 ], [ 8.157184510569477, 58.166917475094543 ], [ 8.15639340290446, 58.16460573175366 ], [ 8.155452088547877, 58.161795718099903 ], [ 8.154751461612893, 58.15921446853244 ], [ 8.155253437764197, 58.154961893399395 ], [ 8.155515982021328, 58.153205750722869 ], [ 8.15597556112767, 58.150160824619824 ], [ 8.156298994286301, 58.148013305579937 ], [ 8.156756863847667, 58.144947205463097 ], [ 8.157195742589115, 58.141984424770968 ], [ 8.157611529503994, 58.137667378569475 ], [ 8.157677432616989, 58.136982989757087 ], [ 8.157917698929927, 58.134465686836819 ], [ 8.158033281826205, 58.133254533413165 ], [ 8.161924919575782, 58.130948066365164 ], [ 8.163192890009372, 58.130828238939095 ] ] } },
{ "type": "Feature", "properties": { "objectid": 1573748, "eier": "STATNETT SF", "eierorgnr": 962986633, "st_length(shape)": 27458.035359779919, "objekttype": "EL_Luftlinje", "nvenetbasid": null, "komponentkodesystem": null, "nvenettnivaa": "1", "sosinettnivaa": "Sentralnett", "navn": "Kristiansand - Kvarenes sk3,", "spenning_kv": 350.0, "driftsattaar": null, "nveopprettetdato": null, "nveendretdato": null, "kildeendretdato": 1724774505000, "malemetode": 99.0, "noyaktighet": null, "globalid": "{5485CD4E-8B47-49EE-B846-668E1260FD37}", "nve_layer": "transmisjon_luft", "voltage_kv": 350.0, "geod_km": 27.413225373360337, "osm_covered_frac": 0.19854280510018216 }, "geometry": { "type": "LineString", "coordinates": [ [ 7.903824347520926, 58.260606718117067 ], [ 7.905618641337057, 58.259226529814157 ], [ 7.905765020732072, 58.259113926738351 ], [ 7.90640460821827, 58.258621913390236 ], [ 7.90648478657863, 58.25856023408344 ], [ 7.908927116465156, 58.257238811526371 ], [ 7.912226573207184, 58.25545340453526 ], [ 7.912754040177242, 58.253499203827701 ], [ 7.913662320367171, 58.250094062151554 ], [ 7.914066198359976, 58.248485946013858 ], [ 7.914678574453447, 58.244851346613117 ], [ 7.91542107144699, 58.242862633838897 ], [ 7.917144824623497, 58.238397838188369 ], [ 7.918500958800025, 58.235816560303192 ], [ 7.919336916202078, 58.233745435054935 ], [ 7.919979586556361, 58.231763582134498 ], [ 7.927552839611133, 58.230334993614861 ], [ 7.930113668066067, 58.229851799555796 ], [ 7.935275121426781, 58.228827880477169 ], [ 7.937343655541212, 58.228417451975041 ], [ 7.938364746817714, 58.228214835502484 ], [ 7.94472624418633, 58.227252060105769 ], [ 7.948092918637293, 58.22676031975454 ], [ 7.951463566790827, 58.226180717332518 ], [ 7.955767063421203, 58.22541973669157 ], [ 7.961950238711394, 58.224318030551238 ], [ 7.965297680609185, 58.223703436888997 ], [ 7.970781224636684, 58.222532901055445 ], [ 7.978253152298019, 58.221631374604335 ], [ 7.985812932620626, 58.220926972574539 ], [ 7.99034879589292, 58.220516420850714 ], [ 7.993925535080926, 58.220169243219964 ], [ 8.002534259690128, 58.219359467162136 ], [ 8.003318946034716, 58.21928320399627 ], [ 8.006631682610831, 58.218961182623055 ], [ 8.0132828524802, 58.219324534516417 ], [ 8.019509721003923, 58.219662002413408 ], [ 8.02062549133816, 58.219722439258909 ], [ 8.0253795565696, 58.220950527457241 ], [ 8.033097328056781, 58.222928302758952 ], [ 8.034340990956114, 58.223246943626251 ], [ 8.037357500970927, 58.224019143315466 ], [ 8.049443381117671, 58.225015227246359 ], [ 8.051957364475912, 58.225251873044513 ], [ 8.054600607778806, 58.225505857067802 ], [ 8.057641306765943, 58.225794088430327 ], [ 8.062916047814658, 58.226301819392887 ], [ 8.065239618691706, 58.22652591266948 ], [ 8.072527107405516, 58.227228800591114 ], [ 8.072758718213221, 58.227251132457546 ], [ 8.072917115237342, 58.227266404532315 ], [ 8.073503654258987, 58.22732295578195 ], [ 8.082815890059578, 58.229596120414094 ], [ 8.085234650365265, 58.230188614392375 ], [ 8.088245011522263, 58.230506032523415 ], [ 8.09194736605061, 58.230900301779727 ], [ 8.096480458271936, 58.231383831406781 ], [ 8.101012350856571, 58.231875185497515 ], [ 8.105478739991886, 58.230882074410367 ], [ 8.108639718675386, 58.230018235320323 ], [ 8.112782371313553, 58.228874847022844 ], [ 8.114508165281372, 58.228395698549313 ], [ 8.114523685613491, 58.228391389342157 ], [ 8.117239174796127, 58.22763738760014 ], [ 8.117385162631148, 58.227596849045675 ], [ 8.123011932429678, 58.226166910106279 ], [ 8.124026317306665, 58.225912763354899 ], [ 8.127515916392763, 58.225038380702905 ], [ 8.128141342618129, 58.221749092868556 ], [ 8.12872735320218, 58.218679097749394 ], [ 8.129142588385159, 58.216432621315242 ], [ 8.131056939451693, 58.213493510157598 ], [ 8.13311809331416, 58.210815964487452 ], [ 8.135527555518278, 58.207308237481023 ], [ 8.137725201198936, 58.203985441511023 ], [ 8.139342906164838, 58.201864353294496 ], [ 8.141357981651849, 58.19924502655698 ], [ 8.14443100276044, 58.195534506323575 ], [ 8.145979209159261, 58.194067286713221 ], [ 8.149715997353598, 58.191259795874217 ], [ 8.151529102027064, 58.189909172515527 ], [ 8.154228033716217, 58.18788674849575 ], [ 8.156808965341213, 58.185978798089302 ], [ 8.15682434597878, 58.185954752970979 ], [ 8.158072061787728, 58.184003952306945 ], [ 8.159377304093745, 58.181951364032024 ], [ 8.1604012493739, 58.180367486389166 ], [ 8.161755417231634, 58.178279943488057 ], [ 8.160539811745361, 58.175697247179166 ], [ 8.15844292741504, 58.171183608861995 ], [ 8.157650629634917, 58.168948408254749 ], [ 8.157144873053285, 58.167475421428378 ], [ 8.156166855660747, 58.164626683054372 ], [ 8.155228259204033, 58.161821228765689 ], [ 8.154511441957023, 58.159218831053245 ], [ 8.155043314685559, 58.154947503683644 ], [ 8.155291290046852, 58.153196252415221 ], [ 8.155753972687229, 58.150152124513397 ], [ 8.15607580446218, 58.148003257810124 ], [ 8.156537940511752, 58.144938108670807 ], [ 8.156969530921884, 58.141976106656301 ], [ 8.157373973556052, 58.137789064735792 ], [ 8.157452460756806, 58.136976360161263 ], [ 8.157709482528373, 58.134290673278748 ], [ 8.157813201959614, 58.133206719175448 ], [ 8.161804060776042, 58.130845188887292 ], [ 8.163044921525504, 58.130726117358556 ] ] } },
{ "type": "Feature", "properties": { "objectid": 1655342, "eier": "STATNETT SF", "eierorgnr": 962986633, "st_length(shape)": 27430.807925535159, "objekttype": "EL_Luftlinje", "nvenetbasid": null, "komponentkodesystem": null, "nvenettnivaa": "1", "sosinettnivaa": "Sentralnett", "navn": "Kristiansand - Kvarenes sk2,", "spenning_kv": 250.0, "driftsattaar": null, "nveopprettetdato": null, "nveendretdato": null, "kildeendretdato": 1724774505000, "malemetode": 99.0, "noyaktighet": null, "globalid": "{7ECECA1E-DEEB-45FB-B096-12BC31D7D06D}", "nve_layer": "transmisjon_luft", "voltage_kv": 250.0, "geod_km": 27.386041588199387, "osm_covered_frac": 0.1989051094890511 }, "geometry": { "type": "LineString", "coordinates": [ [ 7.903924394016999, 58.26031343669483 ], [ 7.905489817687646, 58.259106111663911 ], [ 7.905635714892367, 58.258993584586854 ], [ 7.906221660175528, 58.258541647011491 ], [ 7.906298486201006, 58.258482390906423 ], [ 7.90850676437891, 58.257286980082448 ], [ 7.912004258184369, 58.25539342622551 ], [ 7.912519346043533, 58.253485059508833 ], [ 7.913437046700315, 58.25007601855755 ], [ 7.913843441075482, 58.248472369108413 ], [ 7.914445573497956, 58.244833900496637 ], [ 7.915197812697401, 58.242839368615236 ], [ 7.916894910923167, 58.238365726641227 ], [ 7.918266278914905, 58.235792942190564 ], [ 7.919109582755961, 58.233728716333253 ], [ 7.919806494508904, 58.231686797235724 ], [ 7.927414529299892, 58.230234548302171 ], [ 7.930031272376858, 58.229734920928301 ], [ 7.935102935394987, 58.228733687843899 ], [ 7.937234907201844, 58.228312722377673 ], [ 7.93828523246227, 58.228105315060645 ], [ 7.939696096736028, 58.227891180157172 ], [ 7.939702018130287, 58.227890281573025 ], [ 7.944659181171849, 58.227137755882708 ], [ 7.948005664538015, 58.226639787449621 ], [ 7.951379475851519, 58.226068780611108 ], [ 7.955675535942622, 58.225296873776664 ], [ 7.961863878049001, 58.22421375365937 ], [ 7.965220374976056, 58.223589660210024 ], [ 7.970726080301374, 58.222421678650321 ], [ 7.978208260299528, 58.221512016951351 ], [ 7.985771639055056, 58.220802004289723 ], [ 7.99031022533412, 58.220397976216411 ], [ 7.993882435648214, 58.220047648588647 ], [ 8.002503356938746, 58.219233312039819 ], [ 8.003052250911946, 58.219180716511055 ], [ 8.006622964434259, 58.218838502597386 ], [ 8.013302823001984, 58.219206947315065 ], [ 8.019424119170683, 58.219533421685433 ], [ 8.020690108938499, 58.219600904985484 ], [ 8.025478592230179, 58.220844937965758 ], [ 8.033265014915989, 58.222837706949178 ], [ 8.034441900215231, 58.223138846123412 ], [ 8.037429611377668, 58.223897471867495 ], [ 8.049486738660576, 58.224882335907431 ], [ 8.051997717490623, 58.225129711763245 ], [ 8.054639973422971, 58.225387462136382 ], [ 8.05768060035302, 58.225675661916739 ], [ 8.062957128764859, 58.226179416224973 ], [ 8.065280583634081, 58.226404061383555 ], [ 8.072728769169535, 58.227116977411143 ], [ 8.0729728671114, 58.227140333550132 ], [ 8.073129176654957, 58.227155289780121 ], [ 8.073577398119422, 58.227198175745805 ], [ 8.082913796174203, 58.229485923920883 ], [ 8.085309241943323, 58.230068317302916 ], [ 8.08829071129899, 58.230383172129933 ], [ 8.091995475872613, 58.230777895808338 ], [ 8.096526183305992, 58.231266827519931 ], [ 8.100974257237072, 58.231755164312538 ], [ 8.105379777212232, 58.23077242399971 ], [ 8.108528912903324, 58.22990743209192 ], [ 8.11267336947274, 58.228769822337128 ], [ 8.114477100387733, 58.228262426421011 ], [ 8.117118890611463, 58.227519206841663 ], [ 8.117269682879771, 58.22747678123519 ], [ 8.122914349854515, 58.226059088551636 ], [ 8.123845299503454, 58.225827728408539 ], [ 8.127316504357321, 58.224964976135247 ], [ 8.127917603791762, 58.221737818618813 ], [ 8.128500448270749, 58.218666463328255 ], [ 8.128913106150035, 58.216409674692493 ], [ 8.130845724466624, 58.213452540899738 ], [ 8.132891616313515, 58.210770659474356 ], [ 8.135315516153373, 58.207266491226029 ], [ 8.13750579608349, 58.203942597804662 ], [ 8.139128603498845, 58.201819282514073 ], [ 8.1411427588467, 58.199196403942345 ], [ 8.144221306970483, 58.195478671656723 ], [ 8.145762723799841, 58.193995508826688 ], [ 8.149522353147912, 58.191188543672446 ], [ 8.15133659462078, 58.189837885124547 ], [ 8.154052530995381, 58.187816579481805 ], [ 8.156593910513829, 58.185920081014864 ], [ 8.157851217898662, 58.183960252157789 ], [ 8.159167571278569, 58.18191997770851 ], [ 8.160187595735598, 58.180329943473353 ], [ 8.161503114589753, 58.178273931064624 ], [ 8.160318133318103, 58.1757253183034 ], [ 8.158218172478673, 58.171210969082821 ], [ 8.15742723054343, 58.168968811466009 ], [ 8.156967052523674, 58.167630717197994 ], [ 8.155941854677035, 58.164649339173451 ], [ 8.154988422718295, 58.161835153794819 ], [ 8.154272902998628, 58.159224354200774 ], [ 8.154832133528382, 58.154941868858018 ], [ 8.155063375854441, 58.153186670116938 ], [ 8.155526012292766, 58.150141999281978 ], [ 8.155843906225149, 58.14799418190956 ], [ 8.156310429864787, 58.144929359562717 ], [ 8.156747143295346, 58.141969165620075 ], [ 8.157137373750626, 58.137903906328113 ], [ 8.157226911183601, 58.136970960489691 ], [ 8.157504468504008, 58.134118350358243 ], [ 8.157597723212559, 58.133159783284356 ], [ 8.161696762687747, 58.130731688674729 ], [ 8.162901502440864, 58.130617373776161 ] ] } },
{ "type": "Feature", "properties": { "objectid": 8282, "eier": "STATKRAFT ENERGI AS", "eierorgnr": 987059729, "st_length(shape)": 103.57659896965052, "objekttype": "EL_Sjøkabel", "nvenetbasid": null, "komponentkodesystem": null, "nvenettnivaa": "5", "sosinettnivaa": "Produksjonsnett", "navn": null, "spenning_kv": 230.0, "driftsattaar": null, "nveopprettetdato": null, "nveendretdato": null, "kildeendretdato": 1741332127000, "malemetode": 99.0, "noyaktighet": null, "globalid": "{EF36115E-FC3C-444A-9A5E-0ED73D852E36}", "nve_layer": "sjokabel", "voltage_kv": 230.0, "geod_km": 0.10361549586698617, "osm_covered_frac": 0.0 }, "geometry": { "type": "LineString", "coordinates": [ [ 13.978498858313388, 66.831066041121673 ], [ 13.978601281229873, 66.831115377879399 ], [ 13.978729783702274, 66.831136538867455 ], [ 13.978788765048808, 66.83189177100607 ], [ 13.978712230988284, 66.831937715917277 ] ] } },
{ "type": "Feature", "properties": { "objectid": 8284, "eier": "STATKRAFT ENERGI AS", "eierorgnr": 987059729, "st_length(shape)": 138.85005582957481, "objekttype": "EL_Sjøkabel", "nvenetbasid": null, "komponentkodesystem": null, "nvenettnivaa": "5", "sosinettnivaa": "Produksjonsnett", "navn": null, "spenning_kv": 230.0, "driftsattaar": null, "nveopprettetdato": null, "nveendretdato": null, "kildeendretdato": 1741332127000, "malemetode": 99.0, "noyaktighet": null, "globalid": "{5619A760-E3BA-48F9-B2AB-F8407A7C2252}", "nve_layer": "sjokabel", "voltage_kv": 230.0, "geod_km": 0.13890220468840614, "osm_covered_frac": 0.0 }, "geometry": { "type": "LineString", "coordinates": [ [ 13.978788765048808, 66.83189177100607 ], [ 13.97875009468819, 66.83216924954823 ], [ 13.979007914743804, 66.832274171353262 ], [ 13.979419836064304, 66.832369405162225 ], [ 13.979894585832783, 66.832475724560339 ], [ 13.980325183902099, 66.832556833046368 ], [ 13.980449060741842, 66.832621722727978 ], [ 13.980565186581622, 66.83276381425479 ] ] } },
{ "type": "Feature", "properties": { "objectid": 8285, "eier": "STATKRAFT ENERGI AS", "eierorgnr": 987059729, "st_length(shape)": 295.29706476279802, "objekttype": "EL_Sjøkabel", "nvenetbasid": null, "komponentkodesystem": null, "nvenettnivaa": "5", "sosinettnivaa": "Produksjonsnett", "navn": null, "spenning_kv": 230.0, "driftsattaar": null, "nveopprettetdato": null, "nveendretdato": null, "kildeendretdato": 1741332127000, "malemetode": 99.0, "noyaktighet": null, "globalid": "{25362620-BE6B-4876-9A3D-A2C852FEBF5F}", "nve_layer": "sjokabel", "voltage_kv": 230.0, "geod_km": 0.29540795138051651, "osm_covered_frac": 0.0 }, "geometry": { "type": "LineString", "coordinates": [ [ 13.978729783702274, 66.831136538867455 ], [ 13.977692924568588, 66.828519271703115 ] ] } },
{ "type": "Feature", "properties": { "objectid": 8378, "eier": "STATKRAFT ENERGI AS", "eierorgnr": 987059729, "st_length(shape)": 103.57659896965052, "objekttype": "EL_Sjøkabel", "nvenetbasid": null, "komponentkodesystem": null, "nvenettnivaa": "5", "sosinettnivaa": "Produksjonsnett", "navn": null, "spenning_kv": 230.0, "driftsattaar": null, "nveopprettetdato": null, "nveendretdato": null, "kildeendretdato": 1741332127000, "malemetode": 99.0, "noyaktighet": null, "globalid": "{926896C0-3F4A-42F6-91F8-9E5104A38A90}", "nve_layer": "sjokabel", "voltage_kv": 230.0, "geod_km": 0.10361549586698617, "osm_covered_frac": 0.0 }, "geometry": { "type": "LineString", "coordinates": [ [ 13.978498858313388, 66.831066041121673 ], [ 13.978601281229873, 66.831115377879399 ], [ 13.978729783702274, 66.831136538867455 ], [ 13.978788765048808, 66.83189177100607 ], [ 13.978712230988284, 66.831937715917277 ] ] } },
{ "type": "Feature", "properties": { "objectid": 8380, "eier": "STATKRAFT ENERGI AS", "eierorgnr": 987059729, "st_length(shape)": 138.85005582957481, "objekttype": "EL_Sjøkabel", "nvenetbasid": null, "komponentkodesystem": null, "nvenettnivaa": "5", "sosinettnivaa": "Produksjonsnett", "navn": null, "spenning_kv": 230.0, "driftsattaar": null, "nveopprettetdato": null, "nveendretdato": null, "kildeendretdato": 1741332127000, "malemetode": 99.0, "noyaktighet": null, "globalid": "{D5284563-0AE3-45E6-A3FD-E717FEDE7AE0}", "nve_layer": "sjokabel", "voltage_kv": 230.0, "geod_km": 0.13890220468840614, "osm_covered_frac": 0.0 }, "geometry": { "type": "LineString", "coordinates": [ [ 13.978788765048808, 66.83189177100607 ], [ 13.97875009468819, 66.83216924954823 ], [ 13.979007914743804, 66.832274171353262 ], [ 13.979419836064304, 66.832369405162225 ], [ 13.979894585832783, 66.832475724560339 ], [ 13.980325183902099, 66.832556833046368 ], [ 13.980449060741842, 66.832621722727978 ], [ 13.980565186581622, 66.83276381425479 ] ] } },
{ "type": "Feature", "properties": { "objectid": 8381, "eier": "STATKRAFT ENERGI AS", "eierorgnr": 987059729, "st_length(shape)": 295.29706476279802, "objekttype": "EL_Sjøkabel", "nvenetbasid": null, "komponentkodesystem": null, "nvenettnivaa": "5", "sosinettnivaa": "Produksjonsnett", "navn": null, "spenning_kv": 230.0, "driftsattaar": null, "nveopprettetdato": null, "nveendretdato": null, "kildeendretdato": 1741332127000, "malemetode": 99.0, "noyaktighet": null, "globalid": "{B51AFFF1-0408-4631-AE3F-D18DBE45B0D9}", "nve_layer": "sjokabel", "voltage_kv": 230.0, "geod_km": 0.29540795138051651, "osm_covered_frac": 0.0 }, "geometry": { "type": "LineString", "coordinates": [ [ 13.978729783702274, 66.831136538867455 ], [ 13.977692924568588, 66.828519271703115 ] ] } },
{ "type": "Feature", "properties": { "objectid": 8474, "eier": "STATKRAFT ENERGI AS", "eierorgnr": 987059729, "st_length(shape)": 103.57659896965052, "objekttype": "EL_Sjøkabel", "nvenetbasid": null, "komponentkodesystem": null, "nvenettnivaa": "5", "sosinettnivaa": "Produksjonsnett", "navn": null, "spenning_kv": 230.0, "driftsattaar": null, "nveopprettetdato": null, "nveendretdato": null, "kildeendretdato": 1741332127000, "malemetode": 99.0, "noyaktighet": null, "globalid": "{37100B22-939B-4108-861A-4A6DE242077A}", "nve_layer": "sjokabel", "voltage_kv": 230.0, "geod_km": 0.10361549586698617, "osm_covered_frac": 0.0 }, "geometry": { "type": "LineString", "coordinates": [ [ 13.978498858313388, 66.831066041121673 ], [ 13.978601281229873, 66.831115377879399 ], [ 13.978729783702274, 66.831136538867455 ], [ 13.978788765048808, 66.83189177100607 ], [ 13.978712230988284, 66.831937715917277 ] ] } },
{ "type": "Feature", "properties": { "objectid": 8476, "eier": "STATKRAFT ENERGI AS", "eierorgnr": 987059729, "st_length(shape)": 138.85005582957481, "objekttype": "EL_Sjøkabel", "nvenetbasid": null, "komponentkodesystem": null, "nvenettnivaa": "5", "sosinettnivaa": "Produksjonsnett", "navn": null, "spenning_kv": 230.0, "driftsattaar": null, "nveopprettetdato": null, "nveendretdato": null, "kildeendretdato": 1741332127000, "malemetode": 99.0, "noyaktighet": null, "globalid": "{18545C69-3DF2-4A42-B7C8-BFB6D628DC5D}", "nve_layer": "sjokabel", "voltage_kv": 230.0, "geod_km": 0.13890220468840614, "osm_covered_frac": 0.0 }, "geometry": { "type": "LineString", "coordinates": [ [ 13.978788765048808, 66.83189177100607 ], [ 13.97875009468819, 66.83216924954823 ], [ 13.979007914743804, 66.832274171353262 ], [ 13.979419836064304, 66.832369405162225 ], [ 13.979894585832783, 66.832475724560339 ], [ 13.980325183902099, 66.832556833046368 ], [ 13.980449060741842, 66.832621722727978 ], [ 13.980565186581622, 66.83276381425479 ] ] } },
{ "type": "Feature", "properties": { "objectid": 8477, "eier": "STATKRAFT ENERGI AS", "eierorgnr": 987059729, "st_length(shape)": 295.29706476279802, "objekttype": "EL_Sjøkabel", "nvenetbasid": null, "komponentkodesystem": null, "nvenettnivaa": "5", "sosinettnivaa": "Produksjonsnett", "navn": null, "spenning_kv": 230.0, "driftsattaar": null, "nveopprettetdato": null, "nveendretdato": null, "kildeendretdato": 1741332127000, "malemetode": 99.0, "noyaktighet": null, "globalid": "{DACCDD2D-1CA0-491D-A7E1-EABD92A7D1BF}", "nve_layer": "sjokabel", "voltage_kv": 230.0, "geod_km": 0.29540795138051651, "osm_covered_frac": 0.0 }, "geometry": { "type": "LineString", "coordinates": [ [ 13.978729783702274, 66.831136538867455 ], [ 13.977692924568588, 66.828519271703115 ] ] } },
{ "type": "Feature", "properties": { "objectid": 8570, "eier": "STATKRAFT ENERGI AS", "eierorgnr": 987059729, "st_length(shape)": 103.57659896965052, "objekttype": "EL_Sjøkabel", "nvenetbasid": null, "komponentkodesystem": null, "nvenettnivaa": "5", "sosinettnivaa": "Produksjonsnett", "navn": null, "spenning_kv": 230.0, "driftsattaar": null, "nveopprettetdato": null, "nveendretdato": null, "kildeendretdato": 1741332127000, "malemetode": 99.0, "noyaktighet": null, "globalid": "{4315DAB1-A797-446D-99F0-5753DF79728F}", "nve_layer": "sjokabel", "voltage_kv": 230.0, "geod_km": 0.10361549586698617, "osm_covered_frac": 0.0 }, "geometry": { "type": "LineString", "coordinates": [ [ 13.978498858313388, 66.831066041121673 ], [ 13.978601281229873, 66.831115377879399 ], [ 13.978729783702274, 66.831136538867455 ], [ 13.978788765048808, 66.83189177100607 ], [ 13.978712230988284, 66.831937715917277 ] ] } },
{ "type": "Feature", "properties": { "objectid": 8572, "eier": "STATKRAFT ENERGI AS", "eierorgnr": 987059729, "st_length(shape)": 138.85005582957481, "objekttype": "EL_Sjøkabel", "nvenetbasid": null, "komponentkodesystem": null, "nvenettnivaa": "5", "sosinettnivaa": "Produksjonsnett", "navn": null, "spenning_kv": 230.0, "driftsattaar": null, "nveopprettetdato": null, "nveendretdato": null, "kildeendretdato": 1741332127000, "malemetode": 99.0, "noyaktighet": null, "globalid": "{5DC7B5D6-160A-44FD-A835-C98C85E23C63}", "nve_layer": "sjokabel", "voltage_kv": 230.0, "geod_km": 0.13890220468840614, "osm_covered_frac": 0.0 }, "geometry": { "type": "LineString", "coordinates": [ [ 13.978788765048808, 66.83189177100607 ], [ 13.97875009468819, 66.83216924954823 ], [ 13.979007914743804, 66.832274171353262 ], [ 13.979419836064304, 66.832369405162225 ], [ 13.979894585832783, 66.832475724560339 ], [ 13.980325183902099, 66.832556833046368 ], [ 13.980449060741842, 66.832621722727978 ], [ 13.980565186581622, 66.83276381425479 ] ] } },
{ "type": "Feature", "properties": { "objectid": 8573, "eier": "STATKRAFT ENERGI AS", "eierorgnr": 987059729, "st_length(shape)": 295.29706476279802, "objekttype": "EL_Sjøkabel", "nvenetbasid": null, "komponentkodesystem": null, "nvenettnivaa": "5", "sosinettnivaa": "Produksjonsnett", "navn": null, "spenning_kv": 230.0, "driftsattaar": null, "nveopprettetdato": null, "nveendretdato": null, "kildeendretdato": 1741332127000, "malemetode": 99.0, "noyaktighet": null, "globalid": "{3D78191F-1F5B-45EA-AB66-25268CA0F383}", "nve_layer": "sjokabel", "voltage_kv": 230.0, "geod_km": 0.29540795138051651, "osm_covered_frac": 0.0 }, "geometry": { "type": "LineString", "coordinates": [ [ 13.978729783702274, 66.831136538867455 ], [ 13.977692924568588, 66.828519271703115 ] ] } },
{ "type": "Feature", "properties": { "objectid": 8666, "eier": "STATKRAFT ENERGI AS", "eierorgnr": 987059729, "st_length(shape)": 103.57659896965052, "objekttype": "EL_Sjøkabel", "nvenetbasid": null, "komponentkodesystem": null, "nvenettnivaa": "5", "sosinettnivaa": "Produksjonsnett", "navn": null, "spenning_kv": 230.0, "driftsattaar": null, "nveopprettetdato": null, "nveendretdato": null, "kildeendretdato": 1741332127000, "malemetode": 99.0, "noyaktighet": null, "globalid": "{33C511FF-E772-44D0-9864-94605B706E17}", "nve_layer": "sjokabel", "voltage_kv": 230.0, "geod_km": 0.10361549586698617, "osm_covered_frac": 0.0 }, "geometry": { "type": "LineString", "coordinates": [ [ 13.978498858313388, 66.831066041121673 ], [ 13.978601281229873, 66.831115377879399 ], [ 13.978729783702274, 66.831136538867455 ], [ 13.978788765048808, 66.83189177100607 ], [ 13.978712230988284, 66.831937715917277 ] ] } },
{ "type": "Feature", "properties": { "objectid": 8668, "eier": "STATKRAFT ENERGI AS", "eierorgnr": 987059729, "st_length(shape)": 138.85005582957481, "objekttype": "EL_Sjøkabel", "nvenetbasid": null, "komponentkodesystem": null, "nvenettnivaa": "5", "sosinettnivaa": "Produksjonsnett", "navn": null, "spenning_kv": 230.0, "driftsattaar": null, "nveopprettetdato": null, "nveendretdato": null, "kildeendretdato": 1741332127000, "malemetode": 99.0, "noyaktighet": null, "globalid": "{4D3BEBC0-6F1D-4A0D-8F21-43EE78A36C27}", "nve_layer": "sjokabel", "voltage_kv": 230.0, "geod_km": 0.13890220468840614, "osm_covered_frac": 0.0 }, "geometry": { "type": "LineString", "coordinates": [ [ 13.978788765048808, 66.83189177100607 ], [ 13.97875009468819, 66.83216924954823 ], [ 13.979007914743804, 66.832274171353262 ], [ 13.979419836064304, 66.832369405162225 ], [ 13.979894585832783, 66.832475724560339 ], [ 13.980325183902099, 66.832556833046368 ], [ 13.980449060741842, 66.832621722727978 ], [ 13.980565186581622, 66.83276381425479 ] ] } },
{ "type": "Feature", "properties": { "objectid": 8669, "eier": "STATKRAFT ENERGI AS", "eierorgnr": 987059729, "st_length(shape)": 295.29706476279802, "objekttype": "EL_Sjøkabel", "nvenetbasid": null, "komponentkodesystem": null, "nvenettnivaa": "5", "sosinettnivaa": "Produksjonsnett", "navn": null, "spenning_kv": 230.0, "driftsattaar": null, "nveopprettetdato": null, "nveendretdato": null, "kildeendretdato": 1741332127000, "malemetode": 99.0, "noyaktighet": null, "globalid": "{11759BD2-93C9-4D7B-87F5-B94CDB5054E7}", "nve_layer": "sjokabel", "voltage_kv": 230.0, "geod_km": 0.29540795138051651, "osm_covered_frac": 0.0 }, "geometry": { "type": "LineString", "coordinates": [ [ 13.978729783702274, 66.831136538867455 ], [ 13.977692924568588, 66.828519271703115 ] ] } }
]
}
